{
  "type": "FeatureCollection",
  "features": [
    {
      "type": "Feature",
      "properties": {
        "norad_id": 30912,
        "name": "FENGYUN 1C DEB",
        "group": "fengyun-1c-debris",
        "lat": -79.90726639242381,
        "lon": -92.11756960990307,
        "alt_km": 635.4945447665368,
        "timestamp": "2025-12-27T16:33:30.501933+00:00",
        "meta_object_name": "FENGYUN 1C DEB",
        "meta_object_id": "1999-025AZA",
        "meta_epoch": "2025-12-27T00:49:19.131744",
        "meta_mean_motion": 14.89734002,
        "meta_eccentricity": 0.00590109,
        "meta_inclination": 98.9958,
        "meta_ra_of_asc_node": 204.264,
        "meta_arg_of_pericenter": 52.6523,
        "meta_mean_anomaly": 308.0046,
        "meta_ephemeris_type": 0,
        "meta_classification_type": "U",
        "meta_norad_cat_id": 30912,
        "meta_element_set_no": 999,
        "meta_rev_at_epoch": 99617,
        "meta_bstar": 0.0016025227,
        "meta_mean_motion_dot": 0.00015821,
        "meta_mean_motion_ddot": 0,
        "tle_line1": "1 30912U 99025AZA 25361.03424921  .00015821  00000+0  16025-2 0  9994",
        "tle_line2": "2 30912  98.9958 204.2640 0059010  52.6523 308.0046 14.89734002996172"
      },
      "geometry": {
        "type": "Point",
        "coordinates": [
          -92.11756960990307,
          -79.90726639242381
        ]
      }
    },
    {
      "type": "Feature",
      "properties": {
        "norad_id": 30913,
        "name": "FENGYUN 1C DEB",
        "group": "fengyun-1c-debris",
        "lat": -35.06142077045001,
        "lon": -158.10509134793554,
        "alt_km": 873.766092642978,
        "timestamp": "2025-12-27T16:33:30.501944+00:00",
        "meta_object_name": "FENGYUN 1C DEB",
        "meta_object_id": "1999-025AZB",
        "meta_epoch": "2025-12-25T00:18:04.196448",
        "meta_mean_motion": 14.04972109,
        "meta_eccentricity": 0.00488649,
        "meta_inclination": 98.7447,
        "meta_ra_of_asc_node": 25.5156,
        "meta_arg_of_pericenter": 147.4336,
        "meta_mean_anomaly": 212.9862,
        "meta_ephemeris_type": 0,
        "meta_classification_type": "U",
        "meta_norad_cat_id": 30913,
        "meta_element_set_no": 999,
        "meta_rev_at_epoch": 96090,
        "meta_bstar": 0.00074195676,
        "meta_mean_motion_dot": 1.165e-05,
        "meta_mean_motion_ddot": 0,
        "tle_line1": "1 30913U 99025AZB 25359.01254857  .00001165  00000+0  74196-3 0  9999",
        "tle_line2": "2 30913  98.7447  25.5156 0048864 147.4336 212.9862 14.04972109960900"
      },
      "geometry": {
        "type": "Point",
        "coordinates": [
          -158.10509134793554,
          -35.06142077045001
        ]
      }
    },
    {
      "type": "Feature",
      "properties": {
        "norad_id": 30914,
        "name": "FENGYUN 1C DEB",
        "group": "fengyun-1c-debris",
        "lat": -33.631053418858684,
        "lon": -108.62036023040983,
        "alt_km": 841.916558249557,
        "timestamp": "2025-12-27T16:33:30.501954+00:00",
        "meta_object_name": "FENGYUN 1C DEB",
        "meta_object_id": "1999-025AZC",
        "meta_epoch": "2025-12-23T09:59:19.017312",
        "meta_mean_motion": 13.08882678,
        "meta_eccentricity": 0.05169044,
        "meta_inclination": 99.9832,
        "meta_ra_of_asc_node": 240.6486,
        "meta_arg_of_pericenter": 330.1456,
        "meta_mean_anomaly": 27.1068,
        "meta_ephemeris_type": 0,
        "meta_classification_type": "U",
        "meta_norad_cat_id": 30914,
        "meta_element_set_no": 999,
        "meta_rev_at_epoch": 59215,
        "meta_bstar": 0.0026040863,
        "meta_mean_motion_dot": 1.674e-05,
        "meta_mean_motion_ddot": 0,
        "tle_line1": "1 30914U 99025AZC 25357.41619233  .00001674  00000+0  26041-2 0  9995",
        "tle_line2": "2 30914  99.9832 240.6486 0516904 330.1456  27.1068 13.08882678592153"
      },
      "geometry": {
        "type": "Point",
        "coordinates": [
          -108.62036023040983,
          -33.631053418858684
        ]
      }
    },
    {
      "type": "Feature",
      "properties": {
        "norad_id": 30915,
        "name": "FENGYUN 1C DEB",
        "group": "fengyun-1c-debris",
        "lat": 10.642702836377318,
        "lon": -100.1602365428138,
        "alt_km": 781.333693582179,
        "timestamp": "2025-12-27T16:33:30.501964+00:00",
        "meta_object_name": "FENGYUN 1C DEB",
        "meta_object_id": "1999-025AZD",
        "meta_epoch": "2025-12-27T03:58:36.443712",
        "meta_mean_motion": 14.25145459,
        "meta_eccentricity": 0.00530092,
        "meta_inclination": 98.9407,
        "meta_ra_of_asc_node": 77.6106,
        "meta_arg_of_pericenter": 127.9014,
        "meta_mean_anomaly": 232.6975,
        "meta_ephemeris_type": 0,
        "meta_classification_type": "U",
        "meta_norad_cat_id": 30915,
        "meta_element_set_no": 999,
        "meta_rev_at_epoch": 96718,
        "meta_bstar": 0.0018130559,
        "meta_mean_motion_dot": 4.275e-05,
        "meta_mean_motion_ddot": 0,
        "tle_line1": "1 30915U 99025AZD 25361.16569958  .00004275  00000+0  18131-2 0  9992",
        "tle_line2": "2 30915  98.9407  77.6106 0053009 127.9014 232.6975 14.25145459967180"
      },
      "geometry": {
        "type": "Point",
        "coordinates": [
          -100.1602365428138,
          10.642702836377318
        ]
      }
    },
    {
      "type": "Feature",
      "properties": {
        "norad_id": 30916,
        "name": "FENGYUN 1C DEB",
        "group": "fengyun-1c-debris",
        "lat": 58.36802386417638,
        "lon": 47.10015549948626,
        "alt_km": 899.8440249962841,
        "timestamp": "2025-12-27T16:33:30.501975+00:00",
        "meta_object_name": "FENGYUN 1C DEB",
        "meta_object_id": "1999-025AZE",
        "meta_epoch": "2025-12-27T02:46:38.987328",
        "meta_mean_motion": 14.08857092,
        "meta_eccentricity": 0.00635214,
        "meta_inclination": 99.0002,
        "meta_ra_of_asc_node": 61.4367,
        "meta_arg_of_pericenter": 218.0424,
        "meta_mean_anomaly": 171.1407,
        "meta_ephemeris_type": 0,
        "meta_classification_type": "U",
        "meta_norad_cat_id": 30916,
        "meta_element_set_no": 999,
        "meta_rev_at_epoch": 96046,
        "meta_bstar": 0.001530341,
        "meta_mean_motion_dot": 2.649e-05,
        "meta_mean_motion_ddot": 0,
        "tle_line1": "1 30916U 99025AZE 25361.11572902  .00002649  00000+0  15303-2 0  9992",
        "tle_line2": "2 30916  99.0002  61.4367 0063521 218.0424 171.1407 14.08857092960466"
      },
      "geometry": {
        "type": "Point",
        "coordinates": [
          47.10015549948626,
          58.36802386417638
        ]
      }
    },
    {
      "type": "Feature",
      "properties": {
        "norad_id": 30918,
        "name": "FENGYUN 1C DEB",
        "group": "fengyun-1c-debris",
        "lat": -39.874529214010735,
        "lon": -74.46023180090266,
        "alt_km": 993.1421989584933,
        "timestamp": "2025-12-27T16:33:30.501985+00:00",
        "meta_object_name": "FENGYUN 1C DEB",
        "meta_object_id": "1999-025AZG",
        "meta_epoch": "2025-12-27T07:11:21.220224",
        "meta_mean_motion": 13.96864915,
        "meta_eccentricity": 0.01569106,
        "meta_inclination": 98.4164,
        "meta_ra_of_asc_node": 112.2867,
        "meta_arg_of_pericenter": 84.913,
        "meta_mean_anomaly": 332.0983,
        "meta_ephemeris_type": 0,
        "meta_classification_type": "U",
        "meta_norad_cat_id": 30918,
        "meta_element_set_no": 999,
        "meta_rev_at_epoch": 95256,
        "meta_bstar": 0.00087898187,
        "meta_mean_motion_dot": 1.319e-05,
        "meta_mean_motion_ddot": 0,
        "tle_line1": "1 30918U 99025AZG 25361.29955116  .00001319  00000+0  87898-3 0  9997",
        "tle_line2": "2 30918  98.4164 112.2867 0156910  84.9130 332.0983 13.96864915952566"
      },
      "geometry": {
        "type": "Point",
        "coordinates": [
          -74.46023180090266,
          -39.874529214010735
        ]
      }
    },
    {
      "type": "Feature",
      "properties": {
        "norad_id": 30920,
        "name": "FENGYUN 1C DEB",
        "group": "fengyun-1c-debris",
        "lat": 64.95397401782702,
        "lon": -17.34583784020709,
        "alt_km": 788.4867460450505,
        "timestamp": "2025-12-27T16:33:30.501995+00:00",
        "meta_object_name": "FENGYUN 1C DEB",
        "meta_object_id": "1999-025AZJ",
        "meta_epoch": "2025-12-26T16:18:21.432672",
        "meta_mean_motion": 14.16789745,
        "meta_eccentricity": 0.01077501,
        "meta_inclination": 98.9176,
        "meta_ra_of_asc_node": 142.0077,
        "meta_arg_of_pericenter": 57.9231,
        "meta_mean_anomaly": 303.2351,
        "meta_ephemeris_type": 0,
        "meta_classification_type": "U",
        "meta_norad_cat_id": 30920,
        "meta_element_set_no": 999,
        "meta_rev_at_epoch": 95291,
        "meta_bstar": 0.0027166577,
        "meta_mean_motion_dot": 5.715e-05,
        "meta_mean_motion_ddot": 0,
        "tle_line1": "1 30920U 99025AZJ 25360.67941473  .00005715  00000+0  27167-2 0  9998",
        "tle_line2": "2 30920  98.9176 142.0077 0107750  57.9231 303.2351 14.16789745952919"
      },
      "geometry": {
        "type": "Point",
        "coordinates": [
          -17.34583784020709,
          64.95397401782702
        ]
      }
    }
  ]
}